OBJECT_NAME,OBJECT_ID,EPOCH,MEAN_MOTION,ECCENTRICITY,INCLINATION,RA_OF_ASC_NODE,ARG_OF_PERICENTER,MEAN_ANOMALY,EPHEMERIS_TYPE,CLASSIFICATION_TYPE,NORAD_CAT_ID,ELEMENT_SET_NO,REV_AT_EPOCH,BSTAR,MEAN_MOTION_DOT,MEAN_MOTION_DDOT
ONEWEB-0495,2022-138C,2026-06-03T11:46:37.648128,13.19727525,.0001203,87.9159,307.7010,86.4008,273.7262,0,U,54115,999,17501,-.47461E-4,-.6E-7,0
ONEWEB-0497,2022-138D,2026-06-03T12:04:49.427904,13.19727040,.000173,87.9163,307.6896,95.1163,265.0167,0,U,54116,999,17500,.31794E-4,.26E-6,0
ONEWEB-0499,2022-138E,2026-06-03T11:40:57.817920,13.19725818,.00015265,87.9149,307.7032,87.1934,272.9373,0,U,54117,999,17501,.36810188E-3,.16E-5,0
ONEWEB-0500,2022-138F,2026-06-03T11:44:20.666112,13.19725612,.0001829,87.9180,307.6978,108.9232,251.2100,0,U,54118,999,17502,.12724E-2,.522E-5,0
ONEWEB-0501,2022-138G,2026-06-03T23:22:36.157440,13.19748402,.00022811,87.9167,307.5987,97.5698,262.5694,0,U,54119,999,17506,.63303379E-2,.2549E-4,0
ONEWEB-0502,2022-138H,2026-06-03T23:02:08.136096,13.19727136,.00016783,87.9168,307.5900,87.9732,272.1593,0,U,54120,999,17508,-.59184567E-4,-.11E-6,0
ONEWEB-0503,2022-138J,2026-06-01T10:43:25.356864,13.19727739,.00020224,87.9166,308.0965,90.2839,269.8526,0,U,54121,999,17474,.24711561E-3,.112E-5,0
ONEWEB-0504,2022-138K,2026-06-03T11:32:59.220672,13.19726137,.00016857,87.9166,307.6964,89.8092,270.3233,0,U,54122,999,17502,.83114807E-4,.46E-6,0
ONEWEB-0505,2022-138L,2026-06-03T07:50:06.029952,13.19725389,.000153,87.9166,307.7277,85.5692,274.5616,0,U,54123,999,17498,-.8478349E-4,-.21E-6,0
ONEWEB-0506,2022-138M,2026-06-03T23:36:16.887456,13.19726354,.00016097,87.9167,307.5941,89.5862,270.5455,0,U,54124,999,17506,.43940049E-4,.31E-6,0
ONEWEB-0507,2022-138N,2026-06-03T11:21:37.015776,13.19726002,.00016153,87.9158,307.7091,92.8688,267.2630,0,U,54125,999,17504,.15128062E-4,.19E-6,0
ONEWEB-0508,2022-138P,2026-06-03T11:17:02.837472,13.19727524,.0001373,87.9157,307.7093,94.2968,265.8322,0,U,54126,999,17502,.20997336E-3,.97E-6,0
ONEWEB-0509,2022-138Q,2026-06-03T23:24:54.293760,13.19726718,.0001706,87.9170,307.5967,93.6049,266.5279,0,U,54127,999,17506,-.53415741E-4,-.8E-7,0
ONEWEB-0510,2022-138R,2026-06-03T06:26:41.305632,13.20773025,.00024161,87.9191,277.2087,106.2200,253.9199,0,U,54128,999,17744,.15451303E-3,.76E-6,0
ONEWEB-0511,2022-138S,2026-06-03T23:20:22.259904,13.19725179,.00018965,87.9165,307.6007,86.0395,274.0954,0,U,54129,999,17509,-.49713562E-4,-.7E-7,0
ONEWEB-0512,2022-138T,2026-06-03T23:08:58.249248,13.19724962,.00015069,87.9161,307.6083,82.8785,277.2519,0,U,54130,999,17506,.28025282E-3,.125E-5,0
ONEWEB-0513,2022-138U,2026-06-03T23:24:53.919648,13.20267491,.00016992,87.9165,307.5514,63.9630,296.1677,0,U,54131,999,17497,-.12781701E-3,-.39E-6,0
ONEWEB-0514,2022-138V,2026-06-03T10:47:29.480064,13.19726766,.00019506,87.9168,307.7031,96.0459,264.0896,0,U,54132,999,17501,.10835806E-3,.56E-6,0
ONEWEB-0515,2022-138W,2026-06-03T07:56:21.137280,13.20771972,.00023627,87.9191,277.1917,121.7597,238.3767,0,U,54133,999,17747,-.14171103E-3,-.45E-6,0
ONEWEB-0516,2022-138X,2026-06-03T12:00:15.977952,13.19727602,.000161,87.9143,307.7024,103.2682,256.8630,0,U,54134,999,17502,.42148E-3,.182E-5,0
ONEWEB-0517,2022-138Y,2026-06-03T11:30:42.045984,13.19726757,.0002086,87.9165,307.6963,89.8865,270.2507,0,U,54135,999,17502,-.34928588E-3,-.127E-5,0
ONEWEB-0518,2022-138Z,2026-06-02T19:35:28.071168,13.19726806,.00016802,87.9155,307.8385,101.2384,258.8937,0,U,54136,999,17493,-.57843958E-4,-.1E-6,0
ONEWEB-0519,2022-138AA,2026-06-03T23:29:28.574880,13.19724992,.00019615,87.9170,307.5968,90.8144,269.3213,0,U,54137,999,17509,.59434074E-3,.251E-5,0
ONEWEB-0520,2022-138AB,2026-06-03T11:35:15.641088,13.19726628,.00015463,87.9168,307.6965,93.2630,266.8680,0,U,54138,999,17501,-.13625672E-3,-.42E-6,0
ONEWEB-0521,2022-138AC,2026-06-03T23:18:04.719744,13.19726597,.0002044,87.9169,307.5875,91.9202,268.2165,0,U,54139,999,17502,.26670641E-4,.24E-6,0
ONEWEB-0522,2022-138AD,2026-06-03T11:53:27.094272,13.19726982,.0001713,87.9170,307.6835,93.4338,266.6991,0,U,54140,999,17500,.82591E-4,.46E-6,0
ONEWEB-0523,2022-138AE,2026-06-03T07:36:57.610080,13.20769742,.00026341,87.9188,277.2046,108.9725,251.1694,0,U,54141,999,17747,.11002556E-3,.58E-6,0
ONEWEB-0524,2022-138AF,2026-06-03T07:22:25.167072,13.20770766,.00021267,87.9206,277.2012,126.5102,233.6227,0,U,54142,999,17747,.25203605E-3,.115E-5,0
ONEWEB-0525,2022-138AG,2026-06-03T23:15:47.746368,13.19724544,.00014298,87.9168,307.5982,94.5041,265.6255,0,U,54143,999,17508,.4037997E-5,.15E-6,0
ONEWEB-0526,2022-138AH,2026-06-03T11:19:21.244224,13.19729901,.00015119,87.9152,307.6974,79.8519,280.2784,0,U,54144,999,17499,.80426675E-3,.335E-5,0
